{"type":"FeatureCollection","name":"Baupisten_3m_260715","crs":{"type":"name","properties":{"name":"EPSG:4326"}},"features":[{"type":"Feature","properties":{"name":"Baupiste PZ2 Hauptrohrblock (Grabenachse)","achse":"PlanFeature 1","typ":"Baupiste","breite_m":3.0,"laenge_m":278.6,"source_file":"PZ2_HRB_Graben_Achse_260507.xml","crs":"EPSG:4326 WGS84","stroke":"#ff7f00","stroke-width":1,"stroke-opacity":1.0,"fill":"#ff7f00","fill-opacity":0.35},"geometry":{"type":"Polygon","coordinates":[[[8.76799279,46.6383741],[8.76799303,46.63837299],[8.76799369,46.63836993],[8.76799386,46.63836885],[8.76799398,46.63836766],[8.76799439,46.63836339],[8.76799472,46.63835997],[8.76799476,46.63835888],[8.76799471,46.63835648],[8.76799466,46.6383538],[8.76799459,46.63835058],[8.76799458,46.63834999],[8.76799449,46.6383489],[8.76799327,46.63834004],[8.76799305,46.63833896],[8.76799281,46.63833802],[8.76799179,46.63833408],[8.76799177,46.638334],[8.76799066,46.63832983],[8.76799034,46.63832884],[8.76798761,46.6383217],[8.76798717,46.63832053],[8.76798671,46.63831949],[8.76798537,46.63831687],[8.76798484,46.63831583],[8.76798243,46.63831109],[8.76798184,46.63831008],[8.76797747,46.63830332],[8.76797659,46.63830195],[8.76797589,46.63830098],[8.76797148,46.63829541],[8.76797142,46.63829533],[8.76796945,46.63829289],[8.7679687,46.63829204],[8.76796711,46.63829036],[8.76796476,46.6382879],[8.7679618,46.63828479],[8.76796088,46.6382839],[8.76795676,46.63828026],[8.76795295,46.63827688],[8.76795196,46.63827607],[8.76794403,46.63827009],[8.767941,46.63826759],[8.76793805,46.63826515],[8.76793561,46.63826314],[8.76793367,46.63826128],[8.76793226,46.63825992],[8.76792986,46.63825762],[8.76792812,46.63825594],[8.76792123,46.63824815],[8.76791957,46.63824594],[8.76791633,46.63824161],[8.76791549,46.63824049],[8.76791431,46.63823858],[8.7679133,46.63823695],[8.76791044,46.63823233],[8.76791021,46.63823186],[8.76790627,46.63822394],[8.767903,46.63821537],[8.76790099,46.63820791],[8.76790065,46.63820665],[8.76790054,46.63820601],[8.76790036,46.63820487],[8.7678999,46.638202],[8.76789942,46.63819905],[8.76789922,46.63819784],[8.76789904,46.63819459],[8.76789874,46.63818898],[8.76789913,46.63818124],[8.76789919,46.63818012],[8.76790005,46.63817465],[8.76790058,46.6381713],[8.76790229,46.63816488],[8.76790277,46.63816307],[8.7679029,46.63816258],[8.76790614,46.638154],[8.76790851,46.63814919],[8.76790991,46.63814636],[8.76791028,46.6381456],[8.76791205,46.63814272],[8.7679153,46.63813744],[8.76791533,46.6381374],[8.7679196,46.63813166],[8.76792117,46.63812955],[8.76792277,46.63812773],[8.76792696,46.63812298],[8.76792786,46.63812197],[8.76792796,46.63812187],[8.7679293,46.63812057],[8.76793096,46.63811897],[8.76793533,46.63811475],[8.76794355,46.63810793],[8.7679439,46.63810768],[8.76794567,46.63810641],[8.7679503,46.63810309],[8.76795256,46.63810147],[8.76795312,46.63810112],[8.76795878,46.63809752],[8.76795947,46.6380971],[8.76796354,46.63809464],[8.76796428,46.63809419],[8.76796479,46.63809388],[8.76796793,46.63809198],[8.76796943,46.63809107],[8.76797007,46.63809068],[8.76797242,46.63808926],[8.76797683,46.63808659],[8.76798055,46.63808433],[8.76798172,46.63808362],[8.76798366,46.63808245],[8.76798571,46.63808121],[8.76798617,46.63808093],[8.76798765,46.63808003],[8.76798831,46.63807964],[8.76798874,46.63807937],[8.76798932,46.63807902],[8.76799021,46.63807849],[8.76799336,46.63807657],[8.76799534,46.63807538],[8.76799693,46.63807441],[8.76799806,46.63807373],[8.7680014,46.63807171],[8.76800367,46.63807033],[8.76800688,46.63806839],[8.76801119,46.63806577],[8.7680163,46.63806268],[8.768018,46.63806165],[8.76801929,46.63806087],[8.76802111,46.63805977],[8.76802517,46.63805731],[8.76802638,46.63805658],[8.7680283,46.63805541],[8.7680318,46.63805329],[8.76803881,46.63804905],[8.76803967,46.63804852],[8.76804196,46.63804714],[8.76804332,46.63804632],[8.76804486,46.63804538],[8.76804711,46.63804402],[8.76805104,46.63804164],[8.76805707,46.63803799],[8.76805753,46.63803771],[8.76806188,46.63803507],[8.76806466,46.63803339],[8.76806726,46.63803182],[8.76806878,46.6380309],[8.76806963,46.63803038],[8.76807503,46.63802711],[8.76807558,46.63802678],[8.76807808,46.63802526],[8.76808495,46.6380211],[8.76808567,46.63802067],[8.76808676,46.63802001],[8.768092,46.63801683],[8.76809273,46.63801639],[8.76810246,46.6380105],[8.76810354,46.63800984],[8.76810433,46.63800936],[8.76810867,46.63800673],[8.76810985,46.63800602],[8.76811105,46.63800529],[8.7681145,46.6380032],[8.76811662,46.63800192],[8.76812213,46.63799859],[8.76812393,46.63799749],[8.76812839,46.63799479],[8.76813488,46.63799086],[8.76813617,46.63799008],[8.76813944,46.6379881],[8.76814024,46.63798761],[8.76814508,46.63798468],[8.7681462,46.63798401],[8.76815087,46.63798117],[8.76815831,46.63797667],[8.76815932,46.63797606],[8.76816343,46.63797357],[8.76816504,46.63797259],[8.768167,46.63797141],[8.76816953,46.63796988],[8.76817289,46.63796784],[8.76817538,46.63796633],[8.76817727,46.63796518],[8.76818148,46.63796264],[8.76818339,46.63796148],[8.76818444,46.63796085],[8.76818644,46.63795963],[8.76818733,46.6379591],[8.76818756,46.63795895],[8.76819353,46.63795522],[8.76819608,46.63795362],[8.76820203,46.6379499],[8.7682026,46.63794954],[8.7682038,46.63794879],[8.76820769,46.63794635],[8.76820774,46.63794632],[8.76821171,46.63794382],[8.76821213,46.63794355],[8.7682125,46.6379433],[8.76821302,46.63794295],[8.76821679,46.63794043],[8.76821723,46.63794014],[8.76821733,46.63794007],[8.768218,46.63793962],[8.76821897,46.63793898],[8.76821938,46.6379387],[8.76822071,46.63793781],[8.76822122,46.63793747],[8.7682216,46.63793722],[8.76822188,46.63793703],[8.76822365,46.63793585],[8.76822402,46.6379356],[8.76822495,46.63793498],[8.76822532,46.63793473],[8.76822637,46.63793403],[8.76822746,46.6379333],[8.76822928,46.63793209],[8.76823144,46.63793064],[8.76823317,46.63792949],[8.76823466,46.63792849],[8.76823512,46.63792818],[8.76823774,46.63792631],[8.76824112,46.63792389],[8.76824709,46.63791963],[8.76824857,46.63791858],[8.76825126,46.63791666],[8.76825235,46.63791588],[8.7682542,46.63791456],[8.76825423,46.63791454],[8.76825779,46.63791199],[8.76825802,46.63791182],[8.76825992,46.63791041],[8.76826243,46.63790855],[8.76826248,46.63790851],[8.76827224,46.63790121],[8.76827732,46.63789741],[8.76827939,46.63789587],[8.76828066,46.63789491],[8.76828244,46.63789358],[8.76828506,46.63789162],[8.76828596,46.63789095],[8.76829142,46.63788686],[8.76829262,46.63788597],[8.76829699,46.6378827],[8.76829951,46.63788081],[8.76830198,46.63787896],[8.76830298,46.63787822],[8.76830988,46.63787306],[8.76831181,46.63787162],[8.76831277,46.6378709],[8.76831613,46.63786838],[8.76832091,46.63786481],[8.76832681,46.6378604],[8.76832984,46.63785814],[8.76833264,46.63785604],[8.7683359,46.6378536],[8.76834231,46.63784881],[8.76834329,46.63784807],[8.76834391,46.63784761],[8.768347,46.6378453],[8.76834861,46.63784409],[8.76835103,46.63784228],[8.76835419,46.63783992],[8.76835545,46.63783898],[8.76835666,46.63783807],[8.76835739,46.63783753],[8.76835772,46.63783728],[8.76835887,46.63783642],[8.76836124,46.63783465],[8.76836298,46.63783335],[8.76836498,46.63783185],[8.76836576,46.63783127],[8.76836838,46.63782931],[8.76836982,46.63782823],[8.76837073,46.63782755],[8.7683713,46.63782713],[8.76837174,46.63782679],[8.76837225,46.63782641],[8.76837287,46.63782595],[8.76837385,46.63782522],[8.76837517,46.63782423],[8.76837612,46.63782352],[8.768379,46.63782137],[8.76838027,46.63782042],[8.76838143,46.63781955],[8.76838166,46.63781937],[8.76838257,46.63781869],[8.76838312,46.63781829],[8.76838364,46.6378179],[8.76838531,46.63781665],[8.76838637,46.63781585],[8.76838669,46.63781562],[8.7683879,46.63781471],[8.76838847,46.63781428],[8.76838888,46.63781398],[8.76838904,46.63781386],[8.76839125,46.6378122],[8.76839133,46.63781214],[8.76839265,46.63781116],[8.76839313,46.6378108],[8.76839328,46.63781069],[8.76839405,46.63781011],[8.76839522,46.63780924],[8.76839708,46.63780785],[8.7683972,46.63780776],[8.76839841,46.63780685],[8.76839885,46.63780652],[8.76839905,46.63780637],[8.76839981,46.6378058],[8.76840046,46.63780532],[8.76840116,46.63780479],[8.76840232,46.63780393],[8.76840336,46.63780315],[8.76840594,46.63780121],[8.76840745,46.63780009],[8.76840827,46.63779948],[8.76840881,46.63779907],[8.76840931,46.6377987],[8.76841087,46.63779753],[8.76841278,46.6377961],[8.76841338,46.63779565],[8.76841506,46.6377944],[8.76841576,46.63779387],[8.7684174,46.63779265],[8.76841918,46.63779131],[8.7684209,46.63779003],[8.76842352,46.63778807],[8.76842491,46.63778703],[8.76842653,46.63778582],[8.76842752,46.63778508],[8.76843192,46.63778179],[8.7684367,46.63777822],[8.76843921,46.63777634],[8.76844519,46.63777186],[8.76845457,46.63776485],[8.76845892,46.6377616],[8.76846042,46.63776048],[8.76848204,46.6377443],[8.76848321,46.63774343],[8.76848381,46.63774298],[8.76848689,46.63774068],[8.76849653,46.63773347],[8.76850051,46.63773049],[8.768505,46.63772713],[8.7685105,46.63772302],[8.76851401,46.63772039],[8.76851848,46.63771705],[8.76852334,46.63771342],[8.76854476,46.63769739],[8.76854782,46.63769511],[8.76854872,46.63769444],[8.76854961,46.63769377],[8.7685531,46.63769116],[8.76857097,46.6376778],[8.76857328,46.63767607],[8.76857597,46.63767405],[8.76857855,46.63767212],[8.76858228,46.63766934],[8.76858363,46.63766833],[8.76858633,46.63766631],[8.76858803,46.63766504],[8.76858968,46.6376638],[8.76859284,46.63766144],[8.76859604,46.63765905],[8.76859952,46.63765644],[8.76860329,46.63765363],[8.76861055,46.63764819],[8.76861327,46.63764616],[8.76861468,46.6376451],[8.76862277,46.63763905],[8.76862964,46.63763392],[8.76863268,46.63763164],[8.76863563,46.63762944],[8.76864421,46.63762302],[8.76864501,46.63762242],[8.76864549,46.63762206],[8.76864561,46.63762197],[8.76864684,46.63762106],[8.76864838,46.6376199],[8.76865,46.63761869],[8.76865189,46.63761728],[8.7686526,46.63761675],[8.76865466,46.63761521],[8.76865689,46.63761354],[8.76865817,46.63761258],[8.76865909,46.6376119],[8.76866275,46.63760916],[8.76866363,46.6376085],[8.76866489,46.63760756],[8.76866942,46.63760416],[8.76867035,46.63760347],[8.76867444,46.63760041],[8.7686749,46.63760007],[8.76867547,46.63759964],[8.76867698,46.63759851],[8.76867826,46.63759756],[8.76868152,46.63759512],[8.76868405,46.63759322],[8.76868625,46.63759158],[8.76868743,46.6375907],[8.76869146,46.63758768],[8.76869337,46.63758626],[8.76869495,46.63758507],[8.76869805,46.63758275],[8.76869903,46.63758202],[8.76870065,46.63758081],[8.76870119,46.63758041],[8.7687014,46.63758024],[8.76870275,46.63757921],[8.76870348,46.63757864],[8.76870385,46.63757835],[8.7687081,46.63757507],[8.76870994,46.63757365],[8.76871232,46.63757181],[8.76871536,46.63756946],[8.76871718,46.63756805],[8.76871815,46.6375673],[8.76871872,46.63756686],[8.76872142,46.63756478],[8.76872269,46.6375638],[8.7687231,46.63756346],[8.76872382,46.63756287],[8.76872655,46.63756062],[8.76872903,46.63755857],[8.7687314,46.63755661],[8.76873302,46.63755528],[8.76873646,46.63755243],[8.76874076,46.63754888],[8.76874163,46.63754817],[8.7687436,46.63754654],[8.768744,46.6375462],[8.76874471,46.63754558],[8.76874579,46.63754462],[8.76874675,46.63754377],[8.76874979,46.63754109],[8.76875224,46.63753892],[8.76875468,46.63753677],[8.7687555,46.63753605],[8.76875909,46.63753288],[8.76876052,46.63753162],[8.76876193,46.63753037],[8.76876368,46.63752883],[8.76876406,46.63752848],[8.76876561,46.63752702],[8.76876651,46.63752617],[8.76876856,46.63752423],[8.7687703,46.63752259],[8.76877614,46.63751706],[8.7687764,46.63751682],[8.7687774,46.63751588],[8.76878146,46.63751205],[8.76878188,46.63751164],[8.76878194,46.63751159],[8.76878313,46.63751045],[8.76878344,46.63751015],[8.76879206,46.63750142],[8.76879473,46.63749871],[8.76879736,46.63749606],[8.76879986,46.63749353],[8.76880069,46.63749268],[8.76880127,46.63749209],[8.76880162,46.63749173],[8.76880473,46.63748835],[8.76880823,46.63748454],[8.76880993,46.6374827],[8.76881669,46.63747534],[8.76881874,46.63747311],[8.76881907,46.63747274],[8.7688309,46.6374589],[8.76883356,46.63745578],[8.7688353,46.63745375],[8.76883561,46.63745336],[8.76883745,46.63745105],[8.7688378,46.6374506],[8.76883812,46.6374502],[8.76883881,46.63744933],[8.76884326,46.63744371],[8.76884513,46.63744134],[8.76885093,46.63743402],[8.76885123,46.63743363],[8.76885207,46.63743248],[8.76885687,46.63742592],[8.76886562,46.63741395],[8.7688659,46.63741356],[8.76886677,46.63741227],[8.76886729,46.63741148],[8.76886787,46.63741063],[8.76886826,46.63741004],[8.76887231,46.63740403],[8.76887723,46.63739672],[8.76887935,46.63739357],[8.76887961,46.63739316],[8.7688841,46.63738587],[8.76888769,46.63738004],[8.76889047,46.63737553],[8.76889211,46.63737288],[8.76889235,46.63737247],[8.7688928,46.63737166],[8.76889634,46.63736535],[8.76890388,46.63735192],[8.76890401,46.63735168],[8.76890455,46.63735066],[8.76890588,46.63734813],[8.7689059,46.6373481],[8.76890724,46.63734554],[8.76890944,46.63734136],[8.76891304,46.6373345],[8.76891625,46.63732838],[8.76891754,46.63732591],[8.76892006,46.63732112],[8.76892194,46.63731754],[8.76892443,46.63731278],[8.76892598,46.63730983],[8.76892969,46.63730275],[8.76893146,46.63729939],[8.76893195,46.63729846],[8.7689343,46.63729397],[8.76893889,46.63728522],[8.76894007,46.63728297],[8.76894082,46.63728154],[8.76894301,46.63727737],[8.76894946,46.63726508],[8.76895251,46.63725926],[8.76895382,46.63725677],[8.76896079,46.63724348],[8.76896608,46.63723339],[8.76896984,46.63722623],[8.76897577,46.63721493],[8.76897814,46.6372104],[8.7689789,46.63720897],[8.76897974,46.63720736],[8.76898344,46.63720031],[8.76898377,46.63719967],[8.76898875,46.6371902],[8.76898915,46.63718943],[8.76899097,46.63718595],[8.76899481,46.63717864],[8.76899872,46.63717118],[8.76899924,46.63717019],[8.76900006,46.63716863],[8.76900082,46.63716718],[8.76900113,46.63716662],[8.76901259,46.63714571],[8.76901296,46.63714502],[8.76901372,46.63714364],[8.76901675,46.63713854],[8.76902101,46.6371314],[8.76902157,46.63713046],[8.76902359,46.63712707],[8.76902583,46.63712329],[8.76902753,46.63712045],[8.76902829,46.63711927],[8.76903176,46.63711388],[8.76903269,46.63711243],[8.7690372,46.63710543],[8.76903817,46.63710392],[8.76904119,46.63709924],[8.76904228,46.63709754],[8.76904324,46.63709616],[8.76904536,46.6370931],[8.76905175,46.63708389],[8.76905415,46.63708043],[8.76905468,46.63707967],[8.76905667,46.6370768],[8.76905797,46.63707493],[8.76905852,46.63707418],[8.76905946,46.63707293],[8.76906098,46.63707088],[8.76906154,46.63707013],[8.76907041,46.63705822],[8.76907406,46.63705333],[8.76907457,46.63705264],[8.7690781,46.63704822],[8.76907855,46.63704765],[8.76908042,46.6370453],[8.76908144,46.63704403],[8.76908656,46.63703761],[8.76908823,46.63703551],[8.76908918,46.63703432],[8.76909222,46.63703052],[8.76910387,46.63701684],[8.76910466,46.63701592],[8.76910504,46.63701547],[8.76910754,46.63701254],[8.76910914,46.63701066],[8.7691105,46.63700906],[8.76911301,46.63700629],[8.76911414,46.63700505],[8.76911491,46.6370042],[8.76911787,46.63700094],[8.76911825,46.63700053],[8.76912219,46.63699619],[8.76912421,46.63699396],[8.76912644,46.6369915],[8.7691298,46.63698781],[8.76913107,46.63698649],[8.7691331,46.63698439],[8.76913394,46.63698352],[8.76913961,46.63697765],[8.76914103,46.63697618],[8.76914973,46.63696717],[8.76914995,46.63696694],[8.76915816,46.63695895],[8.76916297,46.63695427],[8.76916746,46.63694989],[8.76917096,46.63694648],[8.76917611,46.63694176],[8.76918464,46.63693393],[8.76919009,46.63692892],[8.76919089,46.63692819],[8.76919108,46.63692801],[8.76919284,46.6369264],[8.76919472,46.63692475],[8.76919764,46.63692218],[8.76920127,46.636919],[8.76920409,46.63691653],[8.76920492,46.6369158],[8.76920804,46.63691312],[8.76921068,46.63691085],[8.76921203,46.63690968],[8.76921489,46.63690723],[8.76922157,46.63690148],[8.76922232,46.63690084],[8.76922332,46.63689998],[8.76922848,46.63689555],[8.76923602,46.63688907],[8.76923674,46.63688845],[8.76923696,46.63688826],[8.76925913,46.6368692],[8.76926056,46.63686797],[8.76926127,46.63686736],[8.76926201,46.63686672],[8.76926248,46.63686632],[8.76926723,46.63686223],[8.7692696,46.63686019],[8.76927108,46.63685892],[8.76927369,46.63685668],[8.76928101,46.63685038],[8.76929597,46.63683752],[8.76930555,46.63682929],[8.76930891,46.6368264],[8.76932229,46.6368149],[8.76932337,46.63681397],[8.76932412,46.63681333],[8.76933176,46.63680675],[8.76933388,46.63680494],[8.76933531,46.6368037],[8.76934092,46.63679888],[8.76934174,46.63679817],[8.7693436,46.63679658],[8.76934422,46.63679605],[8.76934518,46.63679523],[8.76934612,46.63679441],[8.76934767,46.63679308],[8.76934827,46.63679256],[8.76934871,46.63679219],[8.76934934,46.63679164],[8.76935035,46.63679078],[8.76935283,46.63678864],[8.76935577,46.63678612],[8.76935654,46.63678546],[8.76935895,46.63678338],[8.76936228,46.63678052],[8.76936347,46.63677956],[8.7693683,46.63677567],[8.7693704,46.63677398],[8.76937108,46.63677343],[8.76937241,46.63677236],[8.76937487,46.63677061],[8.76937704,46.63676907],[8.76938102,46.63676624],[8.76938305,46.63676481],[8.76938679,46.63676246],[8.76938797,46.63676173],[8.76938901,46.63676108],[8.76939003,46.63676044],[8.76939238,46.63675897],[8.76939273,46.63675875],[8.76939381,46.63675808],[8.7693945,46.63675765],[8.76939611,46.63675677],[8.76939718,46.63675618],[8.7693988,46.63675529],[8.76940341,46.63675275],[8.7694055,46.6367516],[8.7694065,46.63675106],[8.76940955,46.6367496],[8.7694116,46.63674861],[8.76941205,46.63674839],[8.76941303,46.63674792],[8.76941391,46.63674749],[8.76941643,46.63674628],[8.76941881,46.63674513],[8.76942338,46.63674321],[8.76942417,46.63674288],[8.76942507,46.6367425],[8.76942874,46.63674096],[8.76943186,46.63673965],[8.76943356,46.63673903],[8.76943972,46.6367368],[8.76944394,46.63673527],[8.76944538,46.63673475],[8.76944966,46.63673343],[8.76945093,46.63673304],[8.76945178,46.63673278],[8.76945318,46.63673235],[8.76945534,46.63673168],[8.76945932,46.63673045],[8.76945985,46.63673032],[8.76946485,46.63672903],[8.76946829,46.63672815],[8.76947108,46.63672743],[8.76947194,46.6367272],[8.76947354,46.63672679],[8.76947363,46.63672677],[8.76947699,46.63672607],[8.76947807,46.63672584],[8.76948141,46.63672515],[8.76948319,46.63672477],[8.7694837,46.63672467],[8.7694875,46.63672387],[8.7694884,46.63672368],[8.7694894,46.63672351],[8.76949182,46.63672309],[8.76949414,46.63672269],[8.76949604,46.63672236],[8.76949623,46.63672233],[8.76949694,46.6367222],[8.76949742,46.63672211],[8.7694987,46.63672188],[8.76950064,46.63672153],[8.76950177,46.63672132],[8.76950346,46.63672102],[8.7695058,46.6367206],[8.76950677,46.63672042],[8.76951033,46.63671978],[8.76951254,46.63671938],[8.7695131,46.63671927],[8.76951579,46.63671879],[8.76951676,46.63671859],[8.76951733,46.63671847],[8.7695213,46.6367176],[8.76952246,46.63671734],[8.769524,46.63671701],[8.76952525,46.63671673],[8.76952695,46.63671636],[8.76953604,46.63671436],[8.769537,46.63671414],[8.76953802,46.63671387],[8.76954187,46.63671287],[8.76954837,46.63671119],[8.76955158,46.63671036],[8.76955333,46.6367099],[8.76955593,46.63670923],[8.76955687,46.63670897],[8.76956085,46.63670777],[8.76956518,46.63670647],[8.76956684,46.63670597],[8.76956767,46.63670572],[8.76957487,46.63670355],[8.76957541,46.63670339],[8.76957632,46.6367031],[8.76958166,46.63670126],[8.76958262,46.63670093],[8.7695903,46.63669829],[8.76959263,46.63669749],[8.76959442,46.63669687],[8.76959531,46.63669654],[8.76959924,46.63669501],[8.76960209,46.6366939],[8.76960346,46.63669337],[8.76961183,46.6366901],[8.76961292,46.63668968],[8.76961379,46.63668932],[8.76961584,46.63668842],[8.7696191,46.63668699],[8.76962286,46.63668535],[8.76962594,46.636684],[8.76963086,46.63668184],[8.7696317,46.63668145],[8.76963315,46.63668074],[8.76963544,46.63667962],[8.76963865,46.63667804],[8.76964101,46.63667689],[8.7696434,46.63667572],[8.76964477,46.63667505],[8.76964818,46.63667338],[8.76964899,46.63667296],[8.76965137,46.63667166],[8.76965339,46.63667056],[8.76965571,46.63666929],[8.76965747,46.63666833],[8.76965894,46.63666753],[8.76966044,46.63666671],[8.76966485,46.63666431],[8.76966563,46.63666386],[8.76966833,46.63666222],[8.76966997,46.63666123],[8.76967299,46.6366594],[8.76967399,46.63665879],[8.76967864,46.63665597],[8.76967886,46.63665584],[8.76967911,46.63665569],[8.76968082,46.63665466],[8.76968156,46.63665418],[8.76968572,46.63665139],[8.76968607,46.63665115],[8.76969233,46.63664694],[8.769693,46.63664649],[8.7696937,46.63664603],[8.76969604,46.63664445],[8.76969674,46.63664395],[8.76969816,46.6366429],[8.7697,46.63664153],[8.76970215,46.63663992],[8.7697033,46.63663906],[8.76970993,46.63663412],[8.76971048,46.63663372],[8.76971114,46.63663319],[8.76971523,46.63662982],[8.76971748,46.63662795],[8.76971876,46.6366269],[8.76971954,46.63662625],[8.76972051,46.63662544],[8.76972217,46.63662407],[8.76972267,46.63662366],[8.76972316,46.63662326],[8.76972409,46.63662249],[8.76972472,46.63662194],[8.76972523,46.63662147],[8.76972571,46.63662102],[8.76972616,46.63662061],[8.76972944,46.6366176],[8.76973117,46.636616],[8.76973523,46.63661227],[8.76973684,46.63661079],[8.76973743,46.63661022],[8.76973972,46.63660787],[8.76974206,46.63660546],[8.76974365,46.63660383],[8.76974646,46.63660095],[8.7697487,46.63659865],[8.76974924,46.63659806],[8.76974972,46.63659751],[8.76975209,46.63659479],[8.76975421,46.63659235],[8.76975466,46.63659183],[8.76975662,46.63658957],[8.76975849,46.63658742],[8.76975853,46.63658738],[8.76975985,46.63658585],[8.76976008,46.63658556],[8.76976087,46.6365846],[8.76976089,46.63658457],[8.76976407,46.63658064],[8.76976654,46.63657759],[8.76976733,46.63657662],[8.76976782,46.63657601],[8.76976949,46.63657395],[8.76976991,46.63657343],[8.76977479,46.6365674],[8.76977604,46.63656586],[8.76977631,46.63656552],[8.76977783,46.63656364],[8.76977974,46.63656129],[8.76978139,46.63655925],[8.76978265,46.63655769],[8.76978414,46.63655585],[8.76978487,46.63655495],[8.76978565,46.63655399],[8.76978877,46.63655014],[8.76979034,46.6365482],[8.76979086,46.63654755],[8.76979175,46.63654646],[8.76979298,46.63654493],[8.7697936,46.63654417],[8.76979483,46.63654264],[8.76979536,46.63654199],[8.76980107,46.63653493],[8.76980124,46.63653473],[8.7698016,46.63653429],[8.76980227,46.63653346],[8.76980394,46.63653139],[8.76980453,46.63653067],[8.76980492,46.63653018],[8.76980753,46.63652696],[8.76980951,46.63652451],[8.76981259,46.63652071],[8.76981354,46.63651954],[8.76981645,46.63651594],[8.76981784,46.63651423],[8.76981851,46.63651339],[8.76981989,46.63651169],[8.76982048,46.63651096],[8.76982269,46.63650835],[8.76982529,46.63650529],[8.76982786,46.63650225],[8.76982994,46.63649981],[8.76983157,46.63649789],[8.76983335,46.63649578],[8.76983362,46.63649549],[8.76983492,46.63649409],[8.769836,46.63649293],[8.76983991,46.63648871],[8.76984095,46.63648759],[8.76984205,46.6364864],[8.76984363,46.6364847],[8.769847,46.63648107],[8.76984819,46.6364799],[8.76985204,46.63647609],[8.76985366,46.63647449],[8.76985574,46.63647243],[8.76985713,46.63647106],[8.76986148,46.63646676],[8.76986164,46.63646661],[8.7698647,46.63646383],[8.7698657,46.63646293],[8.7698707,46.63645838],[8.76987213,46.63645709],[8.769877,46.63645266],[8.76987805,46.63645175],[8.76988067,46.63644947],[8.76988276,46.63644764],[8.7698858,46.63644499],[8.7698881,46.63644299],[8.76988886,46.63644232],[8.76989319,46.63643855],[8.7698951,46.63643689],[8.76989795,46.63643441],[8.76989856,46.63643387],[8.76989873,46.63643373],[8.76989892,46.63643356],[8.76990559,46.63642775],[8.76987485,46.63641102],[8.76986818,46.63641683],[8.76986799,46.63641699],[8.76986783,46.63641714],[8.76986721,46.63641767],[8.76986437,46.63642015],[8.76986246,46.63642182],[8.76985813,46.63642559],[8.76985736,46.63642626],[8.76985506,46.63642826],[8.76985203,46.63643091],[8.76984993,46.63643273],[8.76984731,46.63643501],[8.76984614,46.63643603],[8.76984591,46.63643624],[8.76984091,46.63644078],[8.76983948,46.63644208],[8.76983448,46.63644662],[8.76983348,46.63644753],[8.76983042,46.63645031],[8.76983002,46.63645067],[8.76982956,46.63645111],[8.76982499,46.63645563],[8.7698236,46.636457],[8.76982152,46.63645906],[8.7698199,46.63646066],[8.76981605,46.63646447],[8.76981463,46.63646587],[8.76981419,46.63646632],[8.76981062,46.63647017],[8.76980904,46.63647187],[8.76980794,46.63647306],[8.7698069,46.63647418],[8.76980299,46.63647839],[8.76980191,46.63647956],[8.76980061,46.63648096],[8.76980013,46.63648147],[8.76979972,46.63648193],[8.76979773,46.63648428],[8.76979611,46.6364862],[8.76979403,46.63648864],[8.76979146,46.63649168],[8.76978886,46.63649474],[8.76978655,46.63649747],[8.76978635,46.6364977],[8.76978567,46.63649855],[8.7697843,46.63650025],[8.76978362,46.63650108],[8.76978223,46.6365028],[8.76977932,46.6365064],[8.76977837,46.63650757],[8.76977529,46.63651137],[8.76977331,46.63651382],[8.76977071,46.63651703],[8.76977031,46.63651752],[8.76976973,46.63651824],[8.76976805,46.63652032],[8.76976738,46.63652115],[8.76976702,46.63652158],[8.76976685,46.63652179],[8.76976114,46.63652885],[8.76976062,46.6365295],[8.76975938,46.63653103],[8.76975876,46.63653179],[8.76975753,46.63653331],[8.76975664,46.63653441],[8.76975612,46.63653506],[8.76975455,46.63653699],[8.76975143,46.63654084],[8.76975065,46.63654181],[8.76974992,46.63654271],[8.76974844,46.63654454],[8.76974717,46.6365461],[8.76974552,46.63654815],[8.76974361,46.6365505],[8.76974209,46.63655238],[8.76974182,46.63655272],[8.76974057,46.63655426],[8.76973569,46.63656029],[8.76973527,46.63656081],[8.7697336,46.63656287],[8.76973311,46.63656348],[8.76973232,46.63656445],[8.76972985,46.6365675],[8.76972669,46.63657141],[8.76972603,46.63657222],[8.76972485,46.63657358],[8.769723,46.63657571],[8.76972104,46.63657797],[8.76972059,46.63657849],[8.76971847,46.63658093],[8.7697161,46.63658365],[8.76971589,46.6365839],[8.76971393,46.63658591],[8.76971112,46.63658879],[8.76970953,46.63659042],[8.76970719,46.63659283],[8.76970518,46.63659489],[8.76970387,46.6365961],[8.76969981,46.63659983],[8.76969808,46.63660142],[8.7696948,46.63660444],[8.76969435,46.63660485],[8.76969387,46.63660529],[8.76969366,46.63660548],[8.76969305,46.63660599],[8.76969257,46.63660639],[8.76969207,46.6366068],[8.76969041,46.63660818],[8.76968944,46.63660898],[8.76968865,46.63660963],[8.76968738,46.63661068],[8.76968512,46.63661255],[8.76968136,46.63661566],[8.76968116,46.63661581],[8.76967453,46.63662075],[8.76967338,46.6366216],[8.76967123,46.63662321],[8.76966939,46.63662458],[8.76966832,46.63662538],[8.76966633,46.63662671],[8.76966564,46.63662718],[8.76966497,46.63662763],[8.76965871,46.63663184],[8.76965835,46.63663207],[8.76965456,46.63663462],[8.76965323,46.63663543],[8.76965298,46.63663558],[8.76965277,46.63663571],[8.76964811,46.63663853],[8.76964711,46.63663914],[8.7696441,46.63664096],[8.76964246,46.63664196],[8.76964013,46.63664337],[8.76963611,46.63664556],[8.76963462,46.63664637],[8.76963315,46.63664718],[8.76963139,46.63664814],[8.76962907,46.6366494],[8.76962705,46.6366505],[8.76962506,46.63665159],[8.76962206,46.63665306],[8.76962069,46.63665373],[8.7696183,46.6366549],[8.76961595,46.63665605],[8.76961273,46.63665763],[8.76961044,46.63665875],[8.7696094,46.63665926],[8.76960491,46.63666123],[8.76960183,46.63666258],[8.76959807,46.63666422],[8.76959481,46.63666565],[8.76959319,46.63666636],[8.76959254,46.63666662],[8.76958417,46.63666988],[8.76958279,46.63667041],[8.76957995,46.63667152],[8.76957646,46.63667288],[8.76957512,46.63667334],[8.76957279,46.63667414],[8.76956511,46.63667679],[8.76956415,46.63667712],[8.76955927,46.6366788],[8.76955919,46.63667882],[8.76955199,46.63668098],[8.76955116,46.63668123],[8.7695495,46.63668173],[8.76954517,46.63668304],[8.76954166,46.63668409],[8.76953953,46.63668465],[8.76953778,46.6366851],[8.76953457,46.63668593],[8.76952807,46.63668761],[8.76952421,46.63668862],[8.76952367,46.63668876],[8.76951506,46.63669065],[8.76951336,46.63669102],[8.76951211,46.63669129],[8.76951057,46.63669163],[8.76950941,46.63669189],[8.76950544,46.63669276],[8.76950536,46.63669277],[8.76950315,46.63669317],[8.76950259,46.63669327],[8.76950038,46.63669367],[8.76949683,46.63669432],[8.76949585,46.63669449],[8.76949351,46.63669492],[8.76949183,46.63669522],[8.76949069,46.63669543],[8.76948876,46.63669578],[8.76948747,46.63669601],[8.76948699,46.63669609],[8.76948637,46.63669621],[8.76948457,46.63669652],[8.76948225,46.63669692],[8.76947983,46.63669734],[8.76947838,46.63669759],[8.76947748,46.63669777],[8.76947613,46.63669805],[8.76947233,46.63669884],[8.76947182,46.63669895],[8.76947004,46.63669932],[8.7694667,46.63670002],[8.76946562,46.63670024],[8.76946167,46.63670107],[8.7694605,46.63670134],[8.76945982,46.63670151],[8.76945823,46.63670193],[8.76945737,46.63670215],[8.76945457,46.63670287],[8.76945114,46.63670375],[8.76944613,46.63670504],[8.76944551,46.6367052],[8.76944503,46.63670532],[8.76944388,46.63670565],[8.76943933,46.63670705],[8.76943717,46.63670772],[8.76943577,46.63670815],[8.76943492,46.63670841],[8.76943365,46.6367088],[8.7694288,46.6367103],[8.76942769,46.63671067],[8.76942571,46.63671139],[8.76942148,46.63671292],[8.76941532,46.63671515],[8.76941307,46.63671597],[8.76941199,46.63671639],[8.76940835,46.63671792],[8.76940468,46.63671946],[8.76940378,46.63671984],[8.76940299,46.63672017],[8.76939789,46.63672231],[8.76939685,46.63672278],[8.76939397,46.63672417],[8.76939144,46.63672539],[8.76939056,46.63672581],[8.76938958,46.63672628],[8.76938913,46.6367265],[8.76938708,46.63672749],[8.76938363,46.63672915],[8.76938283,46.63672956],[8.76938133,46.63673036],[8.76938114,46.63673047],[8.76937896,46.63673167],[8.76937435,46.6367342],[8.76937273,46.63673509],[8.76937166,46.63673568],[8.76937003,46.63673658],[8.76936966,46.63673678],[8.7693689,46.63673722],[8.76936775,46.63673792],[8.76936756,46.63673804],[8.76936639,46.63673877],[8.76936604,46.63673899],[8.76936369,46.63674046],[8.76936267,46.6367411],[8.76936163,46.63674175],[8.76936046,46.63674248],[8.76935625,46.63674511],[8.76935536,46.63674571],[8.76935291,46.63674745],[8.76934892,46.63675028],[8.76934675,46.63675182],[8.76934386,46.63675387],[8.76934302,46.6367545],[8.7693413,46.63675589],[8.76934061,46.63675645],[8.76933852,46.63675814],[8.76933368,46.63676203],[8.76933229,46.63676315],[8.7693319,46.63676348],[8.76932838,46.63676651],[8.76932596,46.63676859],[8.76932519,46.63676924],[8.76932226,46.63677177],[8.76931977,46.63677391],[8.76931877,46.63677477],[8.76931813,46.63677531],[8.7693177,46.63677569],[8.7693171,46.6367762],[8.76931555,46.63677754],[8.7693146,46.63677835],[8.76931365,46.63677917],[8.76931302,46.63677971],[8.76931117,46.6367813],[8.76931035,46.63678201],[8.76930474,46.63678683],[8.7693033,46.63678806],[8.76930119,46.63678988],[8.76929354,46.63679645],[8.76929279,46.6367971],[8.76929171,46.63679803],[8.76927834,46.63680953],[8.76927498,46.63681241],[8.7692654,46.63682065],[8.76925044,46.63683351],[8.76924311,46.63683981],[8.76924051,46.63684205],[8.76923903,46.63684332],[8.76923665,46.63684536],[8.76923191,46.63684944],[8.76923143,46.63684985],[8.76923069,46.63685049],[8.76922998,46.63685109],[8.76922855,46.63685233],[8.76920638,46.63687138],[8.76920616,46.63687157],[8.76920544,46.63687219],[8.7691979,46.63687867],[8.76919275,46.6368831],[8.76919175,46.63688397],[8.769191,46.63688461],[8.76918431,46.63689036],[8.76918146,46.63689281],[8.76918011,46.63689397],[8.76917747,46.63689624],[8.76917428,46.63689898],[8.76917416,46.63689909],[8.76917327,46.63689987],[8.76917046,46.63690234],[8.76916683,46.63690552],[8.76916391,46.63690808],[8.76916189,46.63690985],[8.76916163,46.63691009],[8.76915975,46.63691181],[8.76915955,46.63691199],[8.76915875,46.63691273],[8.7691533,46.63691773],[8.76914477,46.63692556],[8.76913946,46.63693044],[8.76913913,46.63693075],[8.76913547,46.63693431],[8.76913098,46.63693869],[8.76912617,46.63694337],[8.7691178,46.63695152],[8.76911749,46.63695183],[8.76911712,46.63695222],[8.76910842,46.63696123],[8.76910699,46.6369627],[8.76910133,46.63696857],[8.76910048,46.63696944],[8.76909846,46.63697153],[8.76909703,46.63697302],[8.76909673,46.63697334],[8.76909322,46.63697719],[8.76909099,46.63697965],[8.76908897,46.63698188],[8.76908503,46.63698622],[8.76908465,46.63698663],[8.7690817,46.63698989],[8.76908092,46.63699074],[8.76907979,46.63699198],[8.76907714,46.63699491],[8.76907685,46.63699523],[8.76907535,46.636997],[8.76907375,46.63699888],[8.76907124,46.63700182],[8.76907087,46.63700226],[8.76907008,46.63700318],[8.7690583,46.63701702],[8.76905803,46.63701733],[8.76905486,46.6370213],[8.76905485,46.63702132],[8.76905389,46.63702252],[8.76905222,46.63702462],[8.7690471,46.63703104],[8.76904609,46.63703231],[8.76904421,46.63703466],[8.76904376,46.63703522],[8.7690401,46.63703981],[8.76903984,46.63704015],[8.7690392,46.63704101],[8.76903555,46.6370459],[8.76902668,46.63705782],[8.76902612,46.63705856],[8.7690246,46.63706061],[8.76902366,46.63706186],[8.76902298,46.63706278],[8.76902273,46.63706313],[8.76902132,46.63706517],[8.76901932,46.63706804],[8.7690188,46.63706879],[8.7690164,46.63707225],[8.76901001,46.63708147],[8.76900789,46.63708453],[8.76900681,46.63708608],[8.76900658,46.63708643],[8.76900537,46.6370883],[8.76900236,46.63709298],[8.76900139,46.63709448],[8.76899688,46.63710149],[8.76899595,46.63710293],[8.76899247,46.63710833],[8.7689916,46.63710969],[8.76899138,46.63711004],[8.76898959,46.63711305],[8.76898734,46.63711683],[8.76898532,46.63712022],[8.76898476,46.63712116],[8.76898051,46.6371283],[8.76897737,46.63713358],[8.76897716,46.63713393],[8.76897631,46.63713549],[8.76897593,46.63713618],[8.76896447,46.63715709],[8.76896412,46.63715773],[8.76896402,46.63715791],[8.76896321,46.63715946],[8.76896239,46.63716102],[8.76896188,46.63716201],[8.76895796,46.63716947],[8.76895412,46.63717678],[8.7689523,46.63718026],[8.7689519,46.63718102],[8.76894693,46.6371905],[8.76894659,46.63719114],[8.76894289,46.63719819],[8.76894205,46.6371998],[8.7689413,46.63720123],[8.76893892,46.63720575],[8.76893299,46.63721705],[8.76892924,46.63722422],[8.76892395,46.6372343],[8.76891697,46.63724759],[8.76891566,46.63725009],[8.76891261,46.63725591],[8.76890616,46.6372682],[8.76890397,46.63727237],[8.76890323,46.6372738],[8.76890204,46.63727605],[8.76889745,46.6372848],[8.7688951,46.63728928],[8.76889461,46.63729021],[8.76889285,46.63729358],[8.76888913,46.63730065],[8.76888758,46.63730361],[8.76888509,46.63730836],[8.76888321,46.63731195],[8.76888069,46.63731674],[8.7688794,46.63731921],[8.76887619,46.63732533],[8.76887259,46.63733218],[8.7688704,46.63733637],[8.76886906,46.63733891],[8.76886774,46.63734142],[8.76886726,46.63734231],[8.7688598,46.63735562],[8.76885626,46.63736193],[8.76885592,46.63736254],[8.76885441,46.63736499],[8.76885163,46.6373695],[8.76884804,46.63737533],[8.76884367,46.63738242],[8.76884168,46.63738538],[8.76883676,46.63739268],[8.76883272,46.63739869],[8.76883232,46.63739929],[8.76883175,46.63740013],[8.76883122,46.63740092],[8.76883049,46.63740201],[8.76882188,46.63741378],[8.76881708,46.63742034],[8.76881638,46.63742129],[8.76881074,46.63742842],[8.76880886,46.63743079],[8.76880441,46.63743641],[8.76880372,46.63743728],[8.7688034,46.63743768],[8.76880305,46.63743813],[8.76880137,46.63744025],[8.7687998,46.63744209],[8.76879713,46.63744521],[8.76878547,46.63745886],[8.76878359,46.6374609],[8.76877683,46.63746825],[8.76877513,46.6374701],[8.76877163,46.63747391],[8.76876869,46.6374771],[8.76876829,46.6374775],[8.76876746,46.63747835],[8.76876496,46.63748088],[8.76876234,46.63748354],[8.76875967,46.63748624],[8.7687512,46.63749481],[8.7687502,46.63749577],[8.7687498,46.63749615],[8.76874574,46.63749998],[8.76874474,46.63750092],[8.76874449,46.63750117],[8.76873864,46.63750669],[8.7687369,46.63750833],[8.76873485,46.63751027],[8.76873395,46.63751112],[8.76873259,46.6375124],[8.76873105,46.63751377],[8.76872963,46.63751502],[8.7687282,46.63751628],[8.76872461,46.63751945],[8.7687238,46.63752017],[8.76872136,46.63752232],[8.7687189,46.63752448],[8.76871586,46.63752717],[8.7687149,46.63752802],[8.76871382,46.63752897],[8.76871331,46.63752942],[8.76871154,46.63753088],[8.76871068,46.63753159],[8.76870638,46.63753514],[8.76870293,46.63753799],[8.76870132,46.63753932],[8.76869894,46.63754128],[8.76869646,46.63754333],[8.76869373,46.63754558],[8.76869322,46.637546],[8.76869217,46.63754682],[8.76868947,46.63754891],[8.76868891,46.63754934],[8.76868793,46.63755009],[8.76868611,46.6375515],[8.76868307,46.63755385],[8.76868069,46.63755569],[8.76867885,46.63755711],[8.7686746,46.6375604],[8.76867423,46.63756069],[8.7686735,46.63756125],[8.76867226,46.63756221],[8.76867183,46.63756253],[8.76867021,46.63756374],[8.76866923,46.63756447],[8.76866614,46.63756679],[8.76866455,46.63756797],[8.76866264,46.6375694],[8.76865861,46.63757242],[8.76865743,46.6375733],[8.76865523,46.63757494],[8.7686527,46.63757683],[8.76864944,46.63757928],[8.76864816,46.63758023],[8.76864665,46.63758136],[8.76864608,46.63758179],[8.76864562,46.63758213],[8.76864153,46.63758519],[8.7686406,46.63758588],[8.76863607,46.63758927],[8.76863481,46.63759021],[8.76863393,46.63759088],[8.76863027,46.63759361],[8.76862935,46.6375943],[8.76862807,46.63759526],[8.76862584,46.63759693],[8.76862378,46.63759846],[8.76862307,46.637599],[8.76862118,46.63760041],[8.76861956,46.63760162],[8.76861802,46.63760278],[8.76861667,46.63760378],[8.76861619,46.63760414],[8.76861539,46.63760474],[8.76860681,46.63761115],[8.76860386,46.63761336],[8.76860082,46.63761564],[8.76859395,46.63762077],[8.76858587,46.63762682],[8.76858445,46.63762788],[8.76858173,46.63762991],[8.76857447,46.63763534],[8.7685707,46.63763816],[8.76856722,46.63764077],[8.76856402,46.63764316],[8.76856086,46.63764552],[8.76855921,46.63764675],[8.76855751,46.63764803],[8.76855481,46.63765005],[8.76855346,46.63765106],[8.76854973,46.63765384],[8.76854715,46.63765577],[8.76854446,46.63765779],[8.76854215,46.63765951],[8.76852428,46.63767288],[8.76852079,46.63767549],[8.7685199,46.63767616],[8.768519,46.63767683],[8.76851595,46.63767911],[8.76849452,46.63769513],[8.76848966,46.63769877],[8.76848519,46.63770211],[8.76848168,46.63770474],[8.76847618,46.63770885],[8.76847169,46.63771221],[8.76846771,46.63771518],[8.76845807,46.63772239],[8.76845499,46.6377247],[8.76845439,46.63772515],[8.76845322,46.63772602],[8.7684316,46.6377422],[8.7684301,46.63774331],[8.76842575,46.63774657],[8.76841637,46.63775358],[8.76841039,46.63775806],[8.76840788,46.63775993],[8.76840311,46.6377635],[8.7683987,46.6377668],[8.76839771,46.63776754],[8.76839609,46.63776875],[8.7683947,46.63776979],[8.76839208,46.63777175],[8.76839036,46.63777303],[8.76838858,46.63777437],[8.76838694,46.63777559],[8.76838624,46.63777611],[8.76838456,46.63777737],[8.76838396,46.63777782],[8.76838205,46.63777925],[8.76838049,46.63778042],[8.76837999,46.63778079],[8.76837945,46.63778119],[8.76837863,46.6377818],[8.76837713,46.63778293],[8.76837454,46.63778487],[8.7683735,46.63778564],[8.76837234,46.63778651],[8.76837164,46.63778703],[8.76837099,46.63778752],[8.76837023,46.63778809],[8.76837003,46.63778824],[8.76836959,46.63778857],[8.76836844,46.63778943],[8.76836826,46.63778956],[8.7683664,46.63779096],[8.76836523,46.63779183],[8.76836446,46.6377924],[8.76836431,46.63779252],[8.76836383,46.63779288],[8.76836243,46.63779392],[8.76836022,46.63779558],[8.76836006,46.63779569],[8.76835965,46.637796],[8.76835908,46.63779643],[8.76835787,46.63779734],[8.76835755,46.63779757],[8.76835649,46.63779837],[8.76835482,46.63779961],[8.7683543,46.63780001],[8.76835375,46.63780041],[8.76835285,46.63780109],[8.76835261,46.63780127],[8.76835145,46.63780213],[8.76835018,46.63780309],[8.7683473,46.63780524],[8.76834635,46.63780595],[8.76834503,46.63780694],[8.76834405,46.63780767],[8.76834343,46.63780813],[8.76834302,46.63780844],[8.76834293,46.63780851],[8.76834248,46.63780885],[8.76834191,46.63780927],[8.768341,46.63780995],[8.76833956,46.63781102],[8.76833694,46.63781299],[8.76833616,46.63781357],[8.76833416,46.63781507],[8.76833242,46.63781637],[8.76833005,46.63781814],[8.7683289,46.637819],[8.76832857,46.63781925],[8.76832784,46.63781979],[8.76832663,46.6378207],[8.76832537,46.63782164],[8.76832221,46.637824],[8.7683198,46.63782581],[8.76831818,46.63782702],[8.76831509,46.63782933],[8.76831447,46.63782979],[8.76831349,46.63783053],[8.76830709,46.63783531],[8.76830382,46.63783775],[8.76830102,46.63783985],[8.76829799,46.63784212],[8.76829209,46.63784653],[8.76828731,46.6378501],[8.76828395,46.63785262],[8.76828299,46.63785333],[8.76828106,46.63785478],[8.76827416,46.63785994],[8.76827317,46.63786068],[8.76827069,46.63786253],[8.76826817,46.63786442],[8.7682638,46.63786768],[8.7682626,46.63786858],[8.76825714,46.63787267],[8.76825624,46.63787334],[8.76825362,46.6378753],[8.76825184,46.63787663],[8.76825057,46.63787758],[8.7682485,46.63787913],[8.76824342,46.63788293],[8.76823368,46.63789021],[8.76823119,46.63789206],[8.76822942,46.63789338],[8.76822599,46.63789583],[8.76822417,46.63789713],[8.76822307,46.63789792],[8.76822038,46.63789983],[8.76821891,46.63790089],[8.76821294,46.63790515],[8.76820955,46.63790756],[8.76820715,46.63790927],[8.76820589,46.63791012],[8.76820416,46.63791127],[8.768202,46.63791272],[8.76820018,46.63791393],[8.76819909,46.63791466],[8.76819803,46.63791537],[8.76819767,46.63791561],[8.76819674,46.63791623],[8.76819636,46.63791648],[8.7681946,46.63791766],[8.76819431,46.63791785],[8.76819393,46.63791811],[8.76819343,46.63791844],[8.7681921,46.63791933],[8.76819168,46.63791961],[8.76819072,46.63792026],[8.76818995,46.63792077],[8.7681895,46.63792106],[8.76818574,46.63792358],[8.76818521,46.63792393],[8.76818505,46.63792404],[8.76818131,46.6379264],[8.76817745,46.63792882],[8.76817625,46.63792957],[8.76817568,46.63792992],[8.76816973,46.63793365],[8.76816718,46.63793525],[8.76816133,46.6379389],[8.76816057,46.63793937],[8.76815857,46.63794058],[8.76815752,46.63794121],[8.76815561,46.63794237],[8.7681514,46.63794492],[8.7681495,46.63794607],[8.76814702,46.63794757],[8.76814365,46.63794961],[8.76814113,46.63795114],[8.76813917,46.63795233],[8.76813756,46.6379533],[8.76813345,46.63795579],[8.76813244,46.6379564],[8.768125,46.63796091],[8.76812033,46.63796374],[8.76811921,46.63796442],[8.76811437,46.63796735],[8.76811357,46.63796783],[8.7681103,46.63796982],[8.768109,46.6379706],[8.76810252,46.63797453],[8.76809806,46.63797723],[8.76809625,46.63797832],[8.76809075,46.63798166],[8.76808863,46.63798294],[8.76808518,46.63798503],[8.76808398,46.63798576],[8.7680828,46.63798647],[8.76807846,46.6379891],[8.76807767,46.63798958],[8.76807658,46.63799023],[8.76806686,46.63799612],[8.76806613,46.63799656],[8.76806088,46.63799974],[8.7680598,46.6380004],[8.76805908,46.63800084],[8.76805221,46.638005],[8.76804971,46.63800651],[8.76804916,46.63800685],[8.76804376,46.63801011],[8.76804291,46.63801063],[8.76804139,46.63801155],[8.76803879,46.63801312],[8.76803601,46.63801481],[8.76803166,46.63801744],[8.7680312,46.63801772],[8.76802517,46.63802137],[8.76802124,46.63802376],[8.76801899,46.63802512],[8.76801745,46.63802605],[8.76801608,46.63802688],[8.7680138,46.63802826],[8.76801294,46.63802878],[8.76800593,46.63803303],[8.76800243,46.63803515],[8.76800051,46.63803631],[8.7679993,46.63803704],[8.76799524,46.6380395],[8.76799342,46.63804061],[8.76799212,46.63804139],[8.76799043,46.63804241],[8.76798532,46.63804551],[8.76798101,46.63804812],[8.7679778,46.63805006],[8.76797552,46.63805144],[8.76797218,46.63805347],[8.76797106,46.63805415],[8.76796947,46.63805511],[8.76796749,46.63805631],[8.76796433,46.63805822],[8.76796345,46.63805875],[8.76796287,46.63805911],[8.76796243,46.63805937],[8.76796178,46.63805977],[8.7679603,46.63806066],[8.76795983,46.63806095],[8.76795778,46.63806219],[8.76795585,46.63806336],[8.76795468,46.63806407],[8.76795096,46.63806632],[8.76794654,46.63806899],[8.7679442,46.63807041],[8.76794356,46.6380708],[8.76794206,46.63807171],[8.76793891,46.63807362],[8.7679384,46.63807392],[8.76793766,46.63807437],[8.7679336,46.63807683],[8.76793274,46.63807736],[8.76793239,46.63807757],[8.76792655,46.63808128],[8.76792556,46.63808191],[8.76792472,46.63808248],[8.76792205,46.63808439],[8.76791742,46.63808771],[8.76791565,46.63808898],[8.7679148,46.63808958],[8.76791385,46.63809032],[8.76790472,46.6380979],[8.76790385,46.63809868],[8.76789906,46.6381033],[8.7678974,46.6381049],[8.76789606,46.6381062],[8.76789554,46.6381067],[8.76789475,46.63810753],[8.76789349,46.63810896],[8.7678893,46.6381137],[8.76788732,46.63811594],[8.76788662,46.6381168],[8.76788473,46.63811935],[8.76788046,46.63812509],[8.7678801,46.63812557],[8.76787949,46.63812647],[8.76787597,46.6381322],[8.76787392,46.63813554],[8.76787341,46.63813646],[8.76787281,46.63813768],[8.76787141,46.63814051],[8.76786881,46.63814579],[8.7678684,46.63814673],[8.7678648,46.63815627],[8.76786449,46.63815723],[8.76786423,46.6381582],[8.76786375,46.63816002],[8.76786191,46.63816692],[8.76786171,46.6381679],[8.7678611,46.63817174],[8.76786016,46.63817769],[8.76786006,46.63817867],[8.76785998,46.63818029],[8.76785956,46.63818852],[8.76785956,46.6381895],[8.76785989,46.63819561],[8.7678601,46.63819935],[8.7678602,46.63820033],[8.76786048,46.63820204],[8.76786096,46.63820499],[8.76786142,46.63820786],[8.7678616,46.638209],[8.76786179,46.63821012],[8.767862,46.6382111],[8.76786247,46.63821284],[8.76786461,46.63822079],[8.76786492,46.63822175],[8.76786856,46.63823128],[8.76786897,46.63823222],[8.76787314,46.6382406],[8.76787361,46.63824154],[8.76787412,46.63824246],[8.76787726,46.63824754],[8.76787827,46.63824916],[8.76787973,46.63825152],[8.76788034,46.63825242],[8.76788151,46.63825398],[8.76788474,46.6382583],[8.76788672,46.63826095],[8.76788741,46.63826178],[8.76789504,46.63827041],[8.76789585,46.63827126],[8.76789802,46.63827334],[8.76790042,46.63827565],[8.76790183,46.638277],[8.76790418,46.63827926],[8.76790506,46.63828004],[8.76790796,46.63828244],[8.76791091,46.63828487],[8.76791422,46.63828761],[8.7679148,46.63828807],[8.7679225,46.63829388],[8.76792584,46.63829683],[8.76792948,46.63830005],[8.767932,46.6383027],[8.76793434,46.63830516],[8.76793554,46.63830642],[8.76793712,46.63830838],[8.76794112,46.63831342],[8.76794167,46.63831429],[8.76794572,46.63832055],[8.76794788,46.63832478],[8.7679484,46.63832581],[8.76794948,46.63832792],[8.76794972,46.63832855],[8.76795226,46.63833521],[8.76795323,46.63833884],[8.76795423,46.63834274],[8.76795434,46.63834315],[8.76795542,46.63835092],[8.76795542,46.63835097],[8.76795548,46.63835419],[8.76795554,46.63835686],[8.76795558,46.63835872],[8.7679553,46.6383616],[8.76795488,46.63836587],[8.76795482,46.63836651],[8.76795428,46.63836903],[8.76795404,46.63837014],[8.76795304,46.63837476],[8.7679918,46.63837873],[8.76799279,46.6383741]]]}},{"type":"Feature","properties":{"name":"Baupiste Strang D (Grabenachse)","achse":"PlanFeature 1","typ":"Baupiste","breite_m":3.0,"laenge_m":154.6,"source_file":"PZ4_Baupiste-Strang-D_Achse.xml","crs":"EPSG:4326 WGS84","stroke":"#e31a1c","stroke-width":1,"stroke-opacity":1.0,"fill":"#e31a1c","fill-opacity":0.35},"geometry":{"type":"Polygon","coordinates":[[[8.76916758,46.63805181],[8.76916771,46.63805155],[8.76916938,46.63804818],[8.76917285,46.63804119],[8.76917497,46.63803691],[8.76917545,46.63803594],[8.76917813,46.63803054],[8.76918473,46.63801724],[8.7691863,46.63801407],[8.7691877,46.63801124],[8.76919132,46.63800394],[8.76919478,46.63799696],[8.76919616,46.63799419],[8.76919907,46.63798831],[8.7692033,46.63797979],[8.76920443,46.63797751],[8.76920542,46.63797552],[8.76920634,46.63797366],[8.76920817,46.63796998],[8.76920937,46.63796755],[8.76921339,46.63795945],[8.76921443,46.63795736],[8.76921607,46.63795404],[8.76921957,46.637947],[8.76922287,46.63794033],[8.76922374,46.63793858],[8.76922426,46.63793754],[8.76922477,46.63793651],[8.76922665,46.63793273],[8.7692314,46.63792314],[8.76923394,46.63791803],[8.76923798,46.63790987],[8.76923963,46.63790654],[8.76924929,46.63788707],[8.76925046,46.63788471],[8.76925462,46.63787633],[8.76925491,46.63787575],[8.76925971,46.63786606],[8.76926521,46.63785569],[8.76926769,46.63785102],[8.76926809,46.63785025],[8.76927735,46.63783482],[8.76927963,46.63783142],[8.7692799,46.63783102],[8.7692824,46.63782729],[8.76928463,46.63782398],[8.76928752,46.63781967],[8.7692906,46.63781556],[8.76929195,46.63781376],[8.76929348,46.6378117],[8.7692952,46.6378094],[8.76929612,46.63780817],[8.76929795,46.63780572],[8.76929861,46.63780483],[8.76930065,46.63780236],[8.76930169,46.6378011],[8.76930357,46.63779883],[8.76930516,46.63779689],[8.76930724,46.63779437],[8.76930931,46.63779187],[8.76931059,46.63779032],[8.76931191,46.63778886],[8.76931483,46.63778564],[8.769322,46.63777773],[8.76932329,46.63777631],[8.76932671,46.6377727],[8.7693328,46.63776628],[8.76933313,46.63776593],[8.7693415,46.63775711],[8.76935086,46.63774723],[8.76935834,46.63773934],[8.76935988,46.63773772],[8.76936187,46.63773563],[8.76936234,46.63773513],[8.76936369,46.63773371],[8.76937258,46.63772433],[8.76937368,46.63772317],[8.76937553,46.63772122],[8.76938315,46.63771319],[8.7693857,46.6377105],[8.7693865,46.63770966],[8.76938877,46.63770727],[8.76939483,46.63770087],[8.76940117,46.63769419],[8.76940635,46.63768872],[8.76941017,46.6376847],[8.76942058,46.63767372],[8.76942776,46.63766615],[8.76942859,46.63766528],[8.76942901,46.63766483],[8.76943197,46.63766171],[8.76943403,46.63765954],[8.76943509,46.63765841],[8.76943871,46.6376546],[8.76944009,46.63765314],[8.76944098,46.6376522],[8.76944525,46.63764771],[8.769448,46.63764481],[8.76945017,46.63764252],[8.7694534,46.63763911],[8.76945494,46.63763749],[8.76946709,46.63762468],[8.76946851,46.63762318],[8.76947763,46.63761357],[8.76947954,46.63761155],[8.76948276,46.63760816],[8.7694859,46.63760485],[8.76948759,46.63760306],[8.76949437,46.63759591],[8.76949928,46.63759073],[8.76950053,46.63758942],[8.76950355,46.63758624],[8.76950505,46.63758465],[8.7695067,46.63758291],[8.76951672,46.63757234],[8.76952162,46.63756718],[8.76952582,46.63756275],[8.76952959,46.63755877],[8.76953051,46.63755781],[8.76953371,46.63755443],[8.76954779,46.63753958],[8.76955038,46.63753685],[8.76955072,46.63753649],[8.76955422,46.6375328],[8.76955832,46.63752848],[8.76955899,46.63752778],[8.76956003,46.63752668],[8.76956559,46.63752082],[8.76956838,46.63751787],[8.7695735,46.63751247],[8.76957428,46.63751165],[8.76957528,46.63751059],[8.76958153,46.63750401],[8.76958203,46.6375035],[8.76958513,46.63750038],[8.76959254,46.63749291],[8.76959315,46.63749229],[8.76959532,46.63749011],[8.76959724,46.63748834],[8.76959944,46.6374863],[8.76960221,46.63748375],[8.76960792,46.63747848],[8.76960922,46.63747728],[8.76960981,46.63747673],[8.76961832,46.63746953],[8.76962515,46.63746375],[8.76963037,46.63745963],[8.76963598,46.63745521],[8.76963758,46.63745398],[8.76964344,46.63744949],[8.76964674,46.63744695],[8.76965078,46.63744385],[8.76965427,46.63744118],[8.76965962,46.63743708],[8.7696628,46.63743464],[8.76966965,46.63742939],[8.76967502,46.63742527],[8.76967905,46.63742219],[8.76968268,46.6374194],[8.76968825,46.63741513],[8.76969245,46.63741191],[8.76969348,46.63741112],[8.76969592,46.63740925],[8.76969692,46.63740849],[8.7697042,46.63740291],[8.76970917,46.63739909],[8.76971076,46.63739787],[8.76971514,46.63739452],[8.76971952,46.63739116],[8.76972042,46.63739047],[8.76972181,46.6373894],[8.76972403,46.6373877],[8.76972513,46.63738685],[8.76972591,46.63738626],[8.76972767,46.63738491],[8.76973291,46.63738089],[8.76973485,46.63737941],[8.7697385,46.63737661],[8.7697386,46.63737653],[8.76973917,46.63737609],[8.76974299,46.63737311],[8.76974605,46.63737073],[8.76974615,46.63737065],[8.76974755,46.63736954],[8.76975202,46.637366],[8.76975373,46.63736465],[8.76975505,46.6373636],[8.76975611,46.63736276],[8.76975643,46.63736251],[8.76975832,46.63736101],[8.7697615,46.63735849],[8.76976506,46.63735568],[8.76977003,46.63735174],[8.76977163,46.63735047],[8.76977399,46.6373486],[8.76977685,46.63734634],[8.76978287,46.63734158],[8.76978809,46.63733744],[8.76979347,46.63733319],[8.76979391,46.63733284],[8.76979843,46.63732926],[8.76980028,46.63732779],[8.76980203,46.63732641],[8.76980491,46.63732413],[8.76981377,46.63731711],[8.76981449,46.63731654],[8.76981663,46.63731485],[8.76982389,46.6373091],[8.76983484,46.63730044],[8.76984266,46.63729424],[8.76984619,46.63729145],[8.76985254,46.63728642],[8.76985509,46.6372844],[8.76985801,46.63728208],[8.76986267,46.6372784],[8.76986577,46.63727595],[8.76986734,46.63727471],[8.76987012,46.6372725],[8.76987151,46.6372714],[8.76987462,46.63726894],[8.76988376,46.6372617],[8.76988687,46.63725924],[8.76989131,46.63725572],[8.76989328,46.63725417],[8.76989527,46.63725259],[8.76989793,46.63725049],[8.76990062,46.63724836],[8.76990438,46.63724538],[8.76990511,46.6372448],[8.76990748,46.63724292],[8.76991162,46.63723965],[8.76991436,46.63723748],[8.76991808,46.63723453],[8.76992001,46.63723301],[8.76992137,46.63723192],[8.76992305,46.6372306],[8.76992667,46.63722773],[8.76992853,46.63722625],[8.76993056,46.63722465],[8.76993172,46.63722373],[8.76993594,46.63722039],[8.76993829,46.63721853],[8.76994211,46.63721551],[8.76994513,46.63721311],[8.7699474,46.63721132],[8.76995027,46.63720905],[8.76995229,46.63720745],[8.7699564,46.63720419],[8.76996017,46.63720121],[8.76996172,46.63719998],[8.76996717,46.63719567],[8.76996934,46.63719395],[8.76997393,46.63719031],[8.76997635,46.6371884],[8.76998042,46.63718518],[8.77000228,46.63716787],[8.77000415,46.63716639],[8.77000541,46.63716539],[8.77001178,46.63716035],[8.77001445,46.63715823],[8.7700185,46.63715503],[8.77002003,46.63715382],[8.77002147,46.63715268],[8.77002274,46.63715168],[8.77003414,46.63714265],[8.77003878,46.63713898],[8.77004082,46.63713736],[8.77005106,46.63712925],[8.77005381,46.63712708],[8.77005462,46.63712644],[8.77006559,46.63711775],[8.77006828,46.63711562],[8.77007195,46.63711272],[8.77008166,46.63710503],[8.77008515,46.63710227],[8.77008844,46.63709966],[8.77009,46.63709842],[8.7700947,46.6370947],[8.77009697,46.63709291],[8.77010171,46.63708916],[8.77010425,46.63708714],[8.77011178,46.63708118],[8.7701139,46.6370795],[8.77012161,46.6370734],[8.77012322,46.63707212],[8.77012838,46.63706804],[8.77012963,46.63706705],[8.77013007,46.6370667],[8.77013342,46.63706405],[8.77013587,46.63706211],[8.77013866,46.6370599],[8.77013981,46.63705899],[8.77014095,46.63705809],[8.77014222,46.63705708],[8.77014414,46.63705556],[8.77014633,46.63705383],[8.7701518,46.6370495],[8.77015242,46.63704901],[8.77016061,46.63704253],[8.77016547,46.63703867],[8.77016694,46.63703751],[8.77016794,46.63703672],[8.77016924,46.63703569],[8.77017,46.63703509],[8.77017048,46.63703471],[8.77017285,46.63703284],[8.77017332,46.63703246],[8.77017775,46.63702895],[8.7701786,46.63702828],[8.77018345,46.63702444],[8.77018423,46.63702382],[8.77018717,46.63702149],[8.77018866,46.63702031],[8.77019066,46.63701873],[8.77019157,46.63701801],[8.77019461,46.63701561],[8.77019769,46.63701317],[8.77020359,46.63700849],[8.77021361,46.63700056],[8.77021611,46.63699858],[8.77021959,46.63699583],[8.77022043,46.63699517],[8.77022366,46.6369926],[8.77022419,46.63699218],[8.77022775,46.63698937],[8.77022838,46.63698887],[8.77023058,46.63698713],[8.77023134,46.63698652],[8.77023332,46.63698496],[8.77023354,46.63698478],[8.77023439,46.63698411],[8.77023464,46.63698391],[8.77023595,46.63698288],[8.77023691,46.63698212],[8.77023907,46.63698041],[8.77024033,46.63697941],[8.77024165,46.63697836],[8.77024233,46.63697783],[8.77024426,46.6369763],[8.77024481,46.63697586],[8.77024647,46.63697455],[8.7702488,46.6369727],[8.77025076,46.63697115],[8.77025337,46.63696908],[8.77025564,46.63696729],[8.77025785,46.63696554],[8.77026026,46.63696363],[8.77026157,46.63696259],[8.77026442,46.63696033],[8.77027072,46.63695535],[8.77027376,46.63695294],[8.77027653,46.63695075],[8.77028525,46.63694385],[8.77028813,46.63694157],[8.77029105,46.63693925],[8.77029844,46.63693341],[8.77030066,46.63693165],[8.77030121,46.63693121],[8.77030334,46.63692952],[8.77027378,46.63691181],[8.77027165,46.6369135],[8.7702711,46.63691394],[8.77026888,46.63691569],[8.77026149,46.63692154],[8.77025857,46.63692385],[8.77025569,46.63692613],[8.77024697,46.63693304],[8.7702442,46.63693523],[8.77024116,46.63693763],[8.77023487,46.63694262],[8.77023201,46.63694488],[8.7702307,46.63694592],[8.77022829,46.63694783],[8.77022608,46.63694957],[8.77022381,46.63695137],[8.7702212,46.63695344],[8.77021924,46.63695499],[8.77021691,46.63695683],[8.77021525,46.63695815],[8.7702147,46.63695858],[8.77021277,46.63696011],[8.77021209,46.63696065],[8.77021078,46.63696169],[8.77020951,46.63696269],[8.77020735,46.63696441],[8.77020639,46.63696516],[8.77020508,46.6369662],[8.77020483,46.6369664],[8.77020398,46.63696707],[8.77020376,46.63696724],[8.77020178,46.63696881],[8.77020102,46.63696942],[8.77019882,46.63697116],[8.77019819,46.63697166],[8.77019463,46.63697447],[8.7701941,46.63697489],[8.77019087,46.63697745],[8.77019003,46.63697811],[8.77018656,46.63698087],[8.77018405,46.63698285],[8.77017403,46.63699078],[8.77016813,46.63699546],[8.77016505,46.63699789],[8.77016201,46.6370003],[8.7701611,46.63700102],[8.77015911,46.6370026],[8.77015761,46.63700378],[8.77015467,46.63700611],[8.77015389,46.63700673],[8.77014904,46.63701057],[8.7701482,46.63701124],[8.77014376,46.63701475],[8.77014329,46.63701512],[8.77014092,46.63701699],[8.77014044,46.63701738],[8.77013969,46.63701797],[8.77013839,46.637019],[8.77013738,46.6370198],[8.77013591,46.63702096],[8.77013105,46.63702481],[8.77012286,46.6370313],[8.77012224,46.63703178],[8.77011677,46.63703612],[8.77011458,46.63703785],[8.77011267,46.63703937],[8.77011139,46.63704037],[8.77011025,46.63704128],[8.77010911,46.63704218],[8.77010632,46.63704439],[8.77010387,46.63704633],[8.77010051,46.63704899],[8.77010007,46.63704934],[8.77009882,46.63705033],[8.77009366,46.63705441],[8.77009205,46.63705569],[8.77008434,46.63706179],[8.77008222,46.63706347],[8.77007469,46.63706943],[8.77007215,46.63707144],[8.77006741,46.63707519],[8.77006515,46.63707699],[8.77006045,46.63708071],[8.77005888,46.63708194],[8.77005559,46.63708455],[8.7700521,46.63708731],[8.77004239,46.637095],[8.77003872,46.6370979],[8.77003603,46.63710004],[8.77002506,46.63710872],[8.77002425,46.63710937],[8.7700215,46.63711154],[8.77001127,46.63711964],[8.77000922,46.63712126],[8.77000458,46.63712493],[8.76999318,46.63713396],[8.76999191,46.63713496],[8.76999048,46.6371361],[8.76998894,46.63713732],[8.7699849,46.63714052],[8.76998222,46.63714264],[8.76997586,46.63714768],[8.76997459,46.63714868],[8.76997272,46.63715016],[8.76995086,46.63716747],[8.76994679,46.63717069],[8.76994437,46.6371726],[8.76993978,46.63717623],[8.76993761,46.63717795],[8.76993216,46.63718227],[8.76993061,46.6371835],[8.76992684,46.63718648],[8.76992273,46.63718973],[8.76992071,46.63719134],[8.76991784,46.6371936],[8.76991558,46.6371954],[8.76991255,46.6371978],[8.76990873,46.63720082],[8.76990639,46.63720268],[8.76990217,46.63720602],[8.769901,46.63720694],[8.76989898,46.63720854],[8.76989711,46.63721002],[8.76989349,46.63721288],[8.76989182,46.63721421],[8.76989045,46.63721529],[8.76988852,46.63721682],[8.7698848,46.63721977],[8.76988206,46.63722193],[8.76987793,46.63722521],[8.76987555,46.63722709],[8.76987482,46.63722767],[8.76987106,46.63723064],[8.76986837,46.63723277],[8.76986571,46.63723488],[8.76986372,46.63723645],[8.76986176,46.63723801],[8.76985731,46.63724153],[8.7698542,46.63724399],[8.76984506,46.63725123],[8.76984195,46.63725369],[8.76984056,46.63725479],[8.76983778,46.63725699],[8.76983621,46.63725823],[8.76983311,46.63726069],[8.76982846,46.63726437],[8.76982553,46.63726669],[8.76982299,46.6372687],[8.76981663,46.63727373],[8.7698131,46.63727653],[8.76980528,46.63728272],[8.76979434,46.63729138],[8.76978707,46.63729714],[8.76978493,46.63729883],[8.76978421,46.6372994],[8.76977535,46.63730641],[8.76977247,46.6373087],[8.76977072,46.63731008],[8.76976887,46.63731154],[8.76976435,46.63731512],[8.76976391,46.63731547],[8.76975853,46.63731973],[8.76975331,46.63732386],[8.76974729,46.63732863],[8.76974443,46.63733089],[8.76974207,46.63733276],[8.76974048,46.63733403],[8.7697355,46.63733796],[8.76973195,46.63734078],[8.76972877,46.6373433],[8.76972688,46.63734479],[8.76972655,46.63734505],[8.76972549,46.63734589],[8.76972417,46.63734693],[8.76972246,46.63734829],[8.76971799,46.63735183],[8.76971664,46.63735289],[8.76971364,46.63735523],[8.76970982,46.63735821],[8.7697093,46.63735861],[8.7697057,46.63736137],[8.76970377,46.63736285],[8.76969852,46.63736688],[8.76969677,46.63736822],[8.76969599,46.63736882],[8.76969489,46.63736966],[8.76969266,46.63737137],[8.76969127,46.63737243],[8.76969037,46.63737313],[8.76968599,46.63737648],[8.76968162,46.63737983],[8.76968003,46.63738105],[8.76967505,46.63738487],[8.76966777,46.63739045],[8.76966677,46.63739122],[8.76966434,46.63739308],[8.76966331,46.63739388],[8.76965911,46.63739709],[8.76965353,46.63740137],[8.7696499,46.63740415],[8.76964588,46.63740724],[8.76964051,46.63741135],[8.76963365,46.63741661],[8.76963048,46.63741904],[8.76962513,46.63742314],[8.76962164,46.63742582],[8.7696176,46.63742892],[8.7696143,46.63743145],[8.76960844,46.63743594],[8.76960674,46.63743724],[8.76960656,46.63743738],[8.76960086,46.63744188],[8.76959541,46.63744617],[8.76959497,46.63744653],[8.76958792,46.6374525],[8.76957916,46.63745992],[8.76957866,46.63746036],[8.76957782,46.63746114],[8.76957652,46.63746234],[8.76957082,46.6374676],[8.76956805,46.63747016],[8.76956584,46.63747219],[8.76956368,46.63747419],[8.7695632,46.63747465],[8.7695608,46.63747707],[8.76956019,46.63747769],[8.76955278,46.63748516],[8.76954968,46.63748828],[8.76954907,46.6374889],[8.76954884,46.63748913],[8.76954248,46.63749583],[8.76954148,46.63749689],[8.7695407,46.63749771],[8.76953558,46.63750311],[8.76953279,46.63750606],[8.76952723,46.63751192],[8.76952619,46.63751302],[8.76952552,46.63751372],[8.76952142,46.63751804],[8.76951792,46.63752173],[8.76951758,46.6375221],[8.76951499,46.63752482],[8.7695009,46.63753968],[8.76949771,46.63754305],[8.76949679,46.63754402],[8.76949302,46.63754799],[8.76948882,46.63755242],[8.76948392,46.63755758],[8.7694739,46.63756815],[8.76947225,46.6375699],[8.76947074,46.63757148],[8.76946773,46.63757466],[8.76946648,46.63757597],[8.76946157,46.63758115],[8.76945479,46.6375883],[8.76945309,46.63759009],[8.76944995,46.6375934],[8.76944673,46.6375968],[8.76944483,46.63759881],[8.76943571,46.63760842],[8.76943429,46.63760992],[8.76942214,46.63762273],[8.7694206,46.63762435],[8.76941737,46.63762776],[8.7694152,46.63763005],[8.76941245,46.63763295],[8.76940818,46.63763745],[8.76940729,46.63763838],[8.76940591,46.63763984],[8.76940229,46.63764366],[8.76940123,46.63764478],[8.76939917,46.63764695],[8.76939621,46.63765007],[8.76939578,46.63765052],[8.76939496,46.63765139],[8.76938778,46.63765896],[8.76937737,46.63766994],[8.76937355,46.63767396],[8.76936837,46.63767943],[8.76936203,46.63768611],[8.76935596,46.63769251],[8.7693537,46.6376949],[8.7693529,46.63769574],[8.76935035,46.63769843],[8.76934273,46.63770646],[8.76934088,46.63770842],[8.76933978,46.63770957],[8.76933089,46.63771895],[8.76932954,46.63772037],[8.76932906,46.63772087],[8.76932708,46.63772296],[8.76932554,46.63772459],[8.76931806,46.63773247],[8.7693087,46.63774235],[8.76930033,46.63775118],[8.7693,46.63775152],[8.7692939,46.63775795],[8.76929038,46.63776167],[8.76929016,46.6377619],[8.76928876,46.63776344],[8.76928159,46.63777135],[8.76927868,46.63777456],[8.76927714,46.63777626],[8.76927673,46.63777674],[8.76927524,46.63777854],[8.76927318,46.63778104],[8.7692711,46.63778356],[8.7692695,46.63778549],[8.76926763,46.63778776],[8.76926659,46.63778902],[8.76926435,46.63779174],[8.76926396,46.63779223],[8.76926311,46.63779338],[8.76926128,46.63779582],[8.76926036,46.63779706],[8.76925864,46.63779935],[8.76925711,46.63780141],[8.76925576,46.63780321],[8.7692525,46.63780758],[8.76925214,46.63780808],[8.76924907,46.63781265],[8.76924685,46.63781596],[8.76924434,46.63781969],[8.76924407,46.63782009],[8.76924162,46.63782374],[8.76924129,46.63782426],[8.76923172,46.63784021],[8.76923143,46.63784073],[8.76923088,46.63784176],[8.7692284,46.63784644],[8.76922284,46.63785694],[8.7692227,46.63785721],[8.76921783,46.63786703],[8.76921754,46.63786761],[8.76921339,46.63787598],[8.76921222,46.63787835],[8.76920256,46.63789782],[8.76920091,46.63790115],[8.76919686,46.6379093],[8.76919433,46.63791441],[8.76918957,46.637924],[8.76918769,46.63792778],[8.76918718,46.63792882],[8.76918667,46.63792986],[8.7691858,46.63793161],[8.76918249,46.63793827],[8.769179,46.63794532],[8.76917735,46.63794864],[8.76917632,46.63795072],[8.7691723,46.63795883],[8.76917109,46.63796126],[8.76916927,46.63796493],[8.76916835,46.63796679],[8.76916736,46.63796879],[8.76916623,46.63797106],[8.769162,46.63797959],[8.76915909,46.63798546],[8.76915771,46.63798824],[8.76915425,46.63799522],[8.76915063,46.63800252],[8.76914922,46.63800535],[8.76914765,46.63800852],[8.76914105,46.63802182],[8.76913837,46.63802722],[8.76913789,46.63802819],[8.76913577,46.63803246],[8.76913231,46.63803945],[8.76913064,46.63804282],[8.76913051,46.63804308],[8.76912883,46.63804647],[8.7691659,46.6380552],[8.76916758,46.63805181]]]}}]}